start=new Date('2021-09-15T00:00:00.000Z').valueOf();
sats=[{"CLASSIFICATION_TYPE":"U","OBJECT_NAME":"STARLINK-1281","ELEMENT_SET_NO":"999","INCLINATION":"53.0544","FILE":"3115650","LAUNCH_DATE":"2020-03-18","MEAN_ELEMENT_THEORY":"SGP4","PERIOD":"95.592","OBJECT_TYPE":"PAYLOAD","EPOCH":"2021-09-14T10:20:36.443040","NORAD_CAT_ID":"45370","PERIAPSIS":"546.642","CENTER_NAME":"EARTH","MEAN_MOTION_DDOT":"0.0000000000000","REF_FRAME":"TEME","ARG_OF_PERICENTER":"108.8453","TLE_LINE2":"2 45370  53.0544 316.5594 0000804 108.8453 251.2623 15.06404926 82969","RCS_SIZE":"LARGE","REV_AT_EPOCH":"8296","RA_OF_ASC_NODE":"316.5594","DECAY_DATE":null,"MEAN_MOTION":"15.06404926","TIME_SYSTEM":"UTC","TLE_LINE1":"1 45370U 20019L   21257.43097735  .00001176  00000-0  97833-4 0  9995","APOAPSIS":"547.755","BSTAR":"0.00009783300000","EPHEMERIS_TYPE":"0","ECCENTRICITY":"0.00008040","SEMIMAJOR_AXIS":"6925.333","SITE":"AFETR","MEAN_ANOMALY":"251.2623","COUNTRY_CODE":"US","OBJECT_ID":"2020-019L","MEAN_MOTION_DOT":"0.00001176","GP_ID":"184720715"},{"MEAN_MOTION_DOT":"-0.00000528","GP_ID":"184720965","SITE":"AFETR","OBJECT_ID":"2020-019M","COUNTRY_CODE":"US","MEAN_ANOMALY":"232.5514","APOAPSIS":"547.714","TLE_LINE1":"1 45371U 20019M   21257.85856137 -.00000528  00000-0 -16566-4 0  9997","BSTAR":"-0.00001656600000","TIME_SYSTEM":"UTC","SEMIMAJOR_AXIS":"6925.381","EPHEMERIS_TYPE":"0","ECCENTRICITY":"0.00006750","REV_AT_EPOCH":"8302","MEAN_MOTION":"15.06389265","DECAY_DATE":null,"RA_OF_ASC_NODE":"314.6518","ARG_OF_PERICENTER":"127.5537","TLE_LINE2":"2 45371  53.0534 314.6518 0000675 127.5537 232.5514 15.06389265 83028","RCS_SIZE":"LARGE","PERIAPSIS":"546.779","EPOCH":"2021-09-14T20:36:19.702368","NORAD_CAT_ID":"45371","MEAN_MOTION_DDOT":"0.0000000000000","REF_FRAME":"TEME","CENTER_NAME":"EARTH","LAUNCH_DATE":"2020-03-18","PERIOD":"95.593","OBJECT_TYPE":"PAYLOAD","MEAN_ELEMENT_THEORY":"SGP4","CLASSIFICATION_TYPE":"U","OBJECT_NAME":"STARLINK-1287","FILE":"3115650","ELEMENT_SET_NO":"999","INCLINATION":"53.0534"},{"REV_AT_EPOCH":"8302","RA_OF_ASC_NODE":"314.5821","DECAY_DATE":null,"MEAN_MOTION":"15.06389939","TLE_LINE1":"1 45372U 20019N   21257.87330606 -.00000440  00000-0 -10685-4 0  9997","APOAPSIS":"547.749","TIME_SYSTEM":"UTC","BSTAR":"-0.00001068500000","ECCENTRICITY":"0.00007290","EPHEMERIS_TYPE":"0","SEMIMAJOR_AXIS":"6925.379","SITE":"AFETR","OBJECT_ID":"2020-019N","COUNTRY_CODE":"US","MEAN_ANOMALY":"249.6889","MEAN_MOTION_DOT":"-0.00000440","GP_ID":"184722216","OBJECT_NAME":"STARLINK-1288","CLASSIFICATION_TYPE":"U","INCLINATION":"53.0553","ELEMENT_SET_NO":"999","FILE":"3115650","LAUNCH_DATE":"2020-03-18","MEAN_ELEMENT_THEORY":"SGP4","OBJECT_TYPE":"PAYLOAD","PERIOD":"95.593","NORAD_CAT_ID":"45372","EPOCH":"2021-09-14T20:57:33.643584","PERIAPSIS":"546.740","CENTER_NAME":"EARTH","REF_FRAME":"TEME","MEAN_MOTION_DDOT":"0.0000000000000","ARG_OF_PERICENTER":"110.4178","RCS_SIZE":"LARGE","TLE_LINE2":"2 45372  53.0553 314.5821 0000729 110.4178 249.6889 15.06389939 83020"},{"REV_AT_EPOCH":"8302","MEAN_MOTION":"15.06395072","RA_OF_ASC_NODE":"314.6684","DECAY_DATE":null,"BSTAR":"-0.00001415100000","TLE_LINE1":"1 45373U 20019P   21257.85487645 -.00000492  00000-0 -14151-4 0  9991","APOAPSIS":"547.874","TIME_SYSTEM":"UTC","SEMIMAJOR_AXIS":"6925.364","EPHEMERIS_TYPE":"0","ECCENTRICITY":"0.00009320","SITE":"AFETR","COUNTRY_CODE":"US","MEAN_ANOMALY":"245.0714","OBJECT_ID":"2020-019P","MEAN_MOTION_DOT":"-0.00000492","GP_ID":"184722467","CLASSIFICATION_TYPE":"U","OBJECT_NAME":"STARLINK-1295","FILE":"3115650","ELEMENT_SET_NO":"999","INCLINATION":"53.0544","LAUNCH_DATE":"2020-03-18","PERIOD":"95.592","OBJECT_TYPE":"PAYLOAD","MEAN_ELEMENT_THEORY":"SGP4","PERIAPSIS":"546.583","EPOCH":"2021-09-14T20:31:01.325280","NORAD_CAT_ID":"45373","MEAN_MOTION_DDOT":"0.0000000000000","REF_FRAME":"TEME","CENTER_NAME":"EARTH","ARG_OF_PERICENTER":"115.0372","RCS_SIZE":"LARGE","TLE_LINE2":"2 45373  53.0544 314.6684 0000932 115.0372 245.0714 15.06395072 83024"},{"SEMIMAJOR_AXIS":"6925.367","EPHEMERIS_TYPE":"0","ECCENTRICITY":"0.00006260","APOAPSIS":"547.665","TLE_LINE1":"1 45374U 20019Q   21257.85118654 -.00000383  00000-0 -68407-5 0  9996","BSTAR":"-0.00000684070000","TIME_SYSTEM":"UTC","MEAN_MOTION":"15.06394110","RA_OF_ASC_NODE":"314.6848","DECAY_DATE":null,"REV_AT_EPOCH":"8302","GP_ID":"184721215","MEAN_MOTION_DOT":"-0.00000383","MEAN_ANOMALY":"250.9189","COUNTRY_CODE":"US","OBJECT_ID":"2020-019Q","SITE":"AFETR","OBJECT_TYPE":"PAYLOAD","PERIOD":"95.593","MEAN_ELEMENT_THEORY":"SGP4","LAUNCH_DATE":"2020-03-18","FILE":"3115650","INCLINATION":"53.0544","ELEMENT_SET_NO":"999","OBJECT_NAME":"STARLINK-1300","CLASSIFICATION_TYPE":"U","TLE_LINE2":"2 45374  53.0544 314.6848 0000626 109.1868 250.9189 15.06394110 83024","RCS_SIZE":"LARGE","ARG_OF_PERICENTER":"109.1868","REF_FRAME":"TEME","MEAN_MOTION_DDOT":"0.0000000000000","CENTER_NAME":"EARTH","PERIAPSIS":"546.798","NORAD_CAT_ID":"45374","EPOCH":"2021-09-14T20:25:42.517056"},{"GP_ID":"184721465","MEAN_MOTION_DOT":"-0.00000193","MEAN_ANOMALY":"262.1999","COUNTRY_CODE":"US","OBJECT_ID":"2020-019R","SITE":"AFETR","SEMIMAJOR_AXIS":"6925.371","EPHEMERIS_TYPE":"0","ECCENTRICITY":"0.00006930","APOAPSIS":"547.715","TLE_LINE1":"1 45375U 20019R   21257.86592652 -.00000193  00000-0  59090-5 0  9998","TIME_SYSTEM":"UTC","BSTAR":"0.00000590900000","MEAN_MOTION":"15.06392830","RA_OF_ASC_NODE":"314.6143","DECAY_DATE":null,"REV_AT_EPOCH":"8302","RCS_SIZE":"LARGE","TLE_LINE2":"2 45375  53.0554 314.6143 0000693  97.9069 262.1999 15.06392830 83026","ARG_OF_PERICENTER":"97.9069","MEAN_MOTION_DDOT":"0.0000000000000","REF_FRAME":"TEME","CENTER_NAME":"EARTH","PERIAPSIS":"546.756","EPOCH":"2021-09-14T20:46:56.051328","NORAD_CAT_ID":"45375","PERIOD":"95.593","OBJECT_TYPE":"PAYLOAD","MEAN_ELEMENT_THEORY":"SGP4","LAUNCH_DATE":"2020-03-18","FILE":"3115650","ELEMENT_SET_NO":"999","INCLINATION":"53.0554","CLASSIFICATION_TYPE":"U","OBJECT_NAME":"STARLINK-1302"},{"SITE":"AFETR","MEAN_ANOMALY":"284.6376","COUNTRY_CODE":"US","OBJECT_ID":"2020-019S","MEAN_MOTION_DOT":"0.00001212","GP_ID":"184721717","REV_AT_EPOCH":"8296","MEAN_MOTION":"15.06396524","RA_OF_ASC_NODE":"316.3180","DECAY_DATE":null,"TLE_LINE1":"1 45376U 20019S   21257.48627214  .00001212  00000-0  10021-3 0  9991","APOAPSIS":"547.865","BSTAR":"0.00010021000000","TIME_SYSTEM":"UTC","SEMIMAJOR_AXIS":"6925.359","EPHEMERIS_TYPE":"0","ECCENTRICITY":"0.00009260","PERIAPSIS":"546.583","NORAD_CAT_ID":"45376","EPOCH":"2021-09-14T11:40:13.912896","REF_FRAME":"TEME","MEAN_MOTION_DDOT":"0.0000000000000","CENTER_NAME":"EARTH","ARG_OF_PERICENTER":"75.4716","TLE_LINE2":"2 45376  53.0552 316.3180 0000926  75.4716 284.6376 15.06396524 82968","RCS_SIZE":"LARGE","OBJECT_NAME":"STARLINK-1304","CLASSIFICATION_TYPE":"U","FILE":"3115650","INCLINATION":"53.0552","ELEMENT_SET_NO":"999","LAUNCH_DATE":"2020-03-18","OBJECT_TYPE":"PAYLOAD","PERIOD":"95.592","MEAN_ELEMENT_THEORY":"SGP4"},{"OBJECT_TYPE":"PAYLOAD","PERIOD":"95.592","MEAN_ELEMENT_THEORY":"SGP4","LAUNCH_DATE":"2020-03-18","FILE":"3115650","INCLINATION":"53.0540","ELEMENT_SET_NO":"999","OBJECT_NAME":"STARLINK-1305","CLASSIFICATION_TYPE":"U","TLE_LINE2":"2 45377  53.0540 315.9088 0000840 105.0794 255.0288 15.06397903 82987","RCS_SIZE":"LARGE","ARG_OF_PERICENTER":"105.0794","REF_FRAME":"TEME","MEAN_MOTION_DDOT":"0.0000000000000","CENTER_NAME":"EARTH","PERIAPSIS":"546.638","NORAD_CAT_ID":"45377","EPOCH":"2021-09-14T13:52:55.481952","SEMIMAJOR_AXIS":"6925.355","EPHEMERIS_TYPE":"0","ECCENTRICITY":"0.00008400","BSTAR":"-0.00002326000000","TLE_LINE1":"1 45377U 20019T   21257.57841993 -.00000628  00000-0 -23260-4 0  9996","APOAPSIS":"547.802","TIME_SYSTEM":"UTC","MEAN_MOTION":"15.06397903","DECAY_DATE":null,"RA_OF_ASC_NODE":"315.9088","REV_AT_EPOCH":"8298","GP_ID":"184721968","MEAN_MOTION_DOT":"-0.00000628","COUNTRY_CODE":"US","OBJECT_ID":"2020-019T","MEAN_ANOMALY":"255.0288","SITE":"AFETR"},{"EPOCH":"2021-09-14T16:48:04.675104","NORAD_CAT_ID":"45378","PERIAPSIS":"546.753","CENTER_NAME":"EARTH","MEAN_MOTION_DDOT":"0.0000000000000","REF_FRAME":"TEME","ARG_OF_PERICENTER":"114.1234","RCS_SIZE":"LARGE","TLE_LINE2":"2 45378  53.0553 315.3599 0000683 114.1234 245.9826 15.06395910 83004","CLASSIFICATION_TYPE":"U","OBJECT_NAME":"STARLINK-1310","ELEMENT_SET_NO":"999","INCLINATION":"53.0553","FILE":"3115650","LAUNCH_DATE":"2020-03-18","MEAN_ELEMENT_THEORY":"SGP4","PERIOD":"95.592","OBJECT_TYPE":"PAYLOAD","SITE":"AFETR","OBJECT_ID":"2020-019U","COUNTRY_CODE":"US","MEAN_ANOMALY":"245.9826","MEAN_MOTION_DOT":"0.00001327","GP_ID":"184720716","REV_AT_EPOCH":"8300","DECAY_DATE":null,"RA_OF_ASC_NODE":"315.3599","MEAN_MOTION":"15.06395910","TLE_LINE1":"1 45378U 20019U   21257.70005411  .00001327  00000-0  10793-3 0  9990","APOAPSIS":"547.699","BSTAR":"0.00010793000000","TIME_SYSTEM":"UTC","EPHEMERIS_TYPE":"0","ECCENTRICITY":"0.00006830","SEMIMAJOR_AXIS":"6925.361"},{"PERIOD":"95.593","OBJECT_TYPE":"PAYLOAD","MEAN_ELEMENT_THEORY":"SGP4","LAUNCH_DATE":"2020-03-18","FILE":"3115650","ELEMENT_SET_NO":"999","INCLINATION":"53.0543","CLASSIFICATION_TYPE":"U","OBJECT_NAME":"STARLINK-1319","RCS_SIZE":"LARGE","TLE_LINE2":"2 45379  53.0543 316.5402 0000767 109.5148 250.5924 15.06394131 82964","ARG_OF_PERICENTER":"109.5148","MEAN_MOTION_DDOT":"0.0000000000000","REF_FRAME":"TEME","CENTER_NAME":"EARTH","PERIAPSIS":"546.700","EPOCH":"2021-09-14T10:31:13.630080","NORAD_CAT_ID":"45379","SEMIMAJOR_AXIS":"6925.367","EPHEMERIS_TYPE":"0","ECCENTRICITY":"0.00007670","TLE_LINE1":"1 45379U 20019V   21257.43835220  .00001013  00000-0  86867-4 0  9998","TIME_SYSTEM":"UTC","APOAPSIS":"547.763","BSTAR":"0.00008686700000","MEAN_MOTION":"15.06394131","DECAY_DATE":null,"RA_OF_ASC_NODE":"316.5402","REV_AT_EPOCH":"8296","GP_ID":"184720966","MEAN_MOTION_DOT":"0.00001013","COUNTRY_CODE":"US","MEAN_ANOMALY":"250.5924","OBJECT_ID":"2020-019V","SITE":"AFETR"}];
